STARLINK-2352           
1 47892U 21021AJ  21131.50001157  .00014742  00000-0  10919-3 0  9994
2 47892  53.0493 289.2577 0001126  65.4312 275.6491 15.73214284  9647
STARLINK-2353           
1 47893U 21021AK  21131.50001157  .00019396  00000-0  14214-3 0  9997
2 47893  53.0451 288.5045 0001153  83.1613 257.2548 15.73221620  9657
STARLINK-2354           
1 47894U 21021AL  21131.50001157  .00015582  00000-0  11517-3 0  9994
2 47894  53.0497 289.2740 0001280  62.5869 271.5165 15.73209228  9646
STARLINK-2355           
1 47895U 21021AM  21131.16671296  .00002530  00000-0  22428-4 0  9997
2 47895  53.0492 290.9343 0001348  64.3931 178.3890 15.73210105  9594
STARLINK-2356           
1 47896U 21021AN  21131.50001157  .00013633  00000-0  10126-3 0  9996
2 47896  53.0496 289.2752 0001218  68.0468 265.4053 15.73228448  9640
STARLINK-2357           
1 47897U 21021AP  21131.16671296 -.00029669  00000-0 -20720-3 0  9995
2 47897  53.0492 290.9333 0001259  58.3562 185.0209 15.73253656  9596
STARLINK-2358           
1 47898U 21021AQ  21131.50001157 -.00055799  00000-0 -39480-3 0  9993
2 47898  53.0495 289.2755 0001306  71.6821 261.1367 15.73253824  9642
STARLINK-2359           
1 47899U 21021AR  21131.16671296  .00002769  00000-0  24129-4 0  9995
2 47899  53.0495 290.9475 0001361  60.4352 176.6369 15.73213150  9591
STARLINK-2360           
1 47900U 21021AS  21131.16671296  .00002936  00000-0  25315-4 0  9992
2 47900  53.0492 290.9354 0001199  63.8741 178.2582 15.73214782  9592
STARLINK-2361           
1 47901U 21021AT  21131.50001157  .00014935  00000-0  11065-3 0  9992
2 47901  53.0497 289.2825 0001128  60.6328 269.0108 15.73194209  9640
STARLINK-2362           
1 47902U 21021AU  21131.50001157 -.00010777  00000-0 -72422-4 0  9990
2 47902  53.0490 289.2449 0000979  68.8073 278.0466 15.73210254  9642
STARLINK-2363           
1 47903U 21021AV  21131.58335648 -.00019602  00000-0 -13535-3 0  9999
2 47903  53.0498 288.8806 0001637  53.4843  23.4023 15.73230962  9650
STARLINK-2364           
1 47904U 21021AW  21131.16671296  .00002792  00000-0  24289-4 0  9995
2 47904  53.0495 290.9450 0001256  65.2264 173.1187 15.73216959  9599
STARLINK-2365           
1 47905U 21021AX  21130.91667824  .00038182  00000-0  27513-3 0  9994
2 47905  53.0490 292.1919 0001019  46.1781 213.3289 15.73204873  1772
STARLINK-2366           
1 47906U 21021AY  21131.50001157  .00012160  00000-0  90821-4 0  9993
2 47906  53.0498 289.2898 0001333  68.0676 258.3493 15.73226498  9646
STARLINK-2367           
1 47907U 21021AZ  21131.16671296  .00003515  00000-0  29419-4 0  9992
2 47907  53.0492 290.9237 0001068  49.3616 198.4983 15.73225976  9590
STARLINK-2368           
1 47908U 21021BA  21131.50001157 -.00099768  00000-0 -71189-3 0  9991
2 47908  53.0493 289.2638 0001146  61.8781 275.9545 15.73293775  9640
STARLINK-2369           
1 47909U 21021BB  21131.16671296  .00004175  00000-0  34108-4 0  9998
2 47909  53.0497 290.9666 0001091  57.5726 171.2032 15.73228890  9594
STARLINK-2370           
1 47910U 21021BC  21131.16671296  .00003274  00000-0  27720-4 0  9991
2 47910  53.0492 290.9368 0001092  56.8791 184.6492 15.73213569  9590
STARLINK-2371           
1 47911U 21021BD  21131.50001157 -.00000957  00000-0 -23963-5 0  9996
2 47911  53.0496 289.3220 0001302  55.5970 255.9778 15.73213467  9959
STARLINK-2372           
1 47912U 21021BE  21131.50001157  .00012728  00000-0  94979-4 0  9998
2 47912  53.0492 289.2519 0001401  59.3931 284.2661 15.73193603  9646
STARLINK-2374           
1 47913U 21021BF  21131.50001157  .00014453  00000-0  10721-3 0  9998
2 47913  53.0492 289.2491 0001197  70.0332 274.8896 15.73197476  9640
STARLINK-2375           
1 47914U 21021BG  21131.50001157  .00014922  00000-0  11039-3 0  9993
2 47914  53.0492 289.2513 0001129  75.4540 268.7941 15.73230532  9645
STARLINK-2376           
1 47915U 21021BH  21131.16671296 -.00007090  00000-0 -46072-4 0  9999
2 47915  53.0491 290.9261 0001068  61.9252 184.6683 15.73229307  9597
STARLINK-2378           
1 47916U 21021BJ  21131.58335648 -.00008751  00000-0 -57920-4 0  9993
2 47916  53.0497 288.8736 0001991  30.0689  49.9697 15.73218321  9652
STARLINK-2397           
1 47917U 21021BK  21131.16671296  .00004135  00000-0  33823-4 0  9996
2 47917  53.0489 290.9097 0001005  63.8262 190.4041 15.73227116  9595
STARLINK-2398           
1 47918U 21021BL  21131.50001157  .00015337  00000-0  11325-3 0  9996
2 47918  53.0494 289.2620 0001116  67.7065 271.4467 15.73246685  9642
STARLINK-2405           
1 47919U 21021BM  21131.50001157  .00014876  00000-0  11012-3 0  9997
2 47919  53.0494 289.2633 0001446  76.0967 262.4251 15.73217825  9631
WARP-01                 
1 47924U 98067SA  21130.81299218  .00006538  00000-0  11873-3 0  9998
2 47924  51.6409 167.0553 0005542 338.5755  21.5001 15.50884649  8953
RSP-01                  
1 47925U 98067SB  21130.81003432  .00005519  00000-0  10153-3 0  9998
2 47925  51.6415 167.0391 0001525 284.5937  75.4883 15.50859772  8933
TAUSAT-1                
1 47926U 98067SC  21131.18347343  .00007854  00000-0  13873-3 0  9998
2 47926  51.6411 165.0337 0002615 278.9838  81.0856 15.51356108  8980
TSURU                   
1 47927U 98067SD  21131.32692207  .00005542  00000-0  10222-3 0  9994
2 47927  51.6415 164.4912 0001518 280.4976  79.5842 15.50776614  9018
STARS-EC                
1 47928U 98067SE  21131.26456497  .00007124  00000-0  12934-3 0  9997
2 47928  51.6408 164.8214 0006356 342.6078  17.4693 15.50727546  8989
MAYA-2                  
1 47929U 98067SF  21131.32571139  .00005573  00000-0  10263-3 0  9995
2 47929  51.6415 164.4832 0001559 275.0519  85.0292 15.50808528  8974
HIROGARI (OPUSAT-II)    
1 47930U 98067SG  21130.80725504  .00007263  00000-0  13013-3 0  9990
2 47930  51.6415 167.0213 0001431 280.2920  79.7908 15.51079131  8932
GUARANISAT-1            
1 47931U 98067SH  21130.80970392  .00005043  00000-0  93603-4 0  9996
2 47931  51.6416 167.0373 0001577 270.5366  89.5443 15.50814775  8931
CAS500-1                
1 47932U 21022A   21131.52310245  .00000853  00000-0  41048-4 0  9999
2 47932  97.3986  34.3717 0013690  88.4011  36.1538 15.21383728  7648
GRUS-1C                 
1 47933U 21022B   21131.52989240 -.00000366  00000-0 -29387-4 0  9990
2 47933  97.7268  34.7093 0021611  74.5572 285.8030 14.93321951  7498
GRUS-1B                 
1 47934U 21022C   21131.48838912  .00000148  00000-0  20297-4 0  9992
2 47934  97.7276  34.6181 0021745  73.6410 286.7244 14.91579048  7480
GRUS-1E                 
1 47935U 21022D   21131.51792823 -.00000142  00000-0 -80271-5 0  9992
2 47935  97.7285  34.7402 0021432  74.2692 286.0824 14.93545847  7490
GRUS-1D                 
1 47936U 21022E   21131.53942434 -.00000184  00000-0 -12202-4 0  9994
2 47936  97.7280  34.7045 0021605  75.0874 285.2775 14.92881817  7497
DMSAT-1                 
1 47940U 21022J   21131.52851463  .00001261  00000-0  89048-4 0  9996
2 47940  97.5612  34.4926 0020488  71.3612 288.9824 15.06556654  7513
SIMBA                   
1 47941U 21022K   21131.49244423 -.00000210  00000-0 -10208-4 0  9992
2 47941  97.5621  34.3904 0023820  77.3312 283.0560 15.05621558  7490
HIBER-3                 
1 47942U 21022L   21131.01823663  .00000995  00000-0  72304-4 0  9993
2 47942  97.5598  33.9334 0022611  78.6037 281.7729 15.05908120  7429
ELSA-D                  
1 47944U 21022N   21130.79530736  .00000547  00000-0  40947-4 0  9996
2 47944  97.5603  33.7681 0019873  75.1524 285.1903 15.06619261  7406
UNISAT-7                
1 47945U 21022P   21130.72919865  .00000465  00000-0  35464-4 0  9991
2 47945  97.5601  33.7018 0019944  74.8303 285.5128 15.06604397  7260
LACUNASAT-2B            
1 47948U 21022S   21131.01353038  .00001354  00000-0  96453-4 0  9994
2 47948  97.5660  33.9780 0022642  77.2865 283.0891 15.06075489  7292
KEPLER-7 (C3PO)         
1 47949U 21022T   21131.02222025  .00000576  00000-0  43791-4 0  9999
2 47949  97.5595  33.9273 0022788  79.5178 280.8616 15.05783193  7422
KMSL                    
1 47950U 21022U   21131.49386177 -.00000027  00000-0  24198-5 0  9994
2 47950  97.5590  34.3751 0023765  78.5832 281.8042 15.05593873  7492
CUBESX-SIRIUS-HSE       
1 47951U 21022V   21131.49328673 -.00000131  00000-0 -47789-5 0  9990
2 47951  97.5621  34.3854 0024087  77.4672 282.9234 15.05601625  7490
CUBESX-HSE              
1 47952U 21022W   21130.89389142 -.00000065  00000-0 -20933-6 0  9991
2 47952  97.5615  33.8003 0023994  78.8114 281.5810 15.05640011  7404
KSU-CUBESAT             
1 47954U 21022Y   21130.82507246  .00000546  00000-0  41792-4 0  9999
2 47954  97.5620  33.7405 0023268  79.5886 280.7962 15.05717691  7111
KEPLER-6 (ROCINANTE)    
1 47955U 21022Z   21131.02342073  .00000625  00000-0  47209-4 0  9995
2 47955  97.5596  33.9260 0023058  79.5723 280.8101 15.05757528  7144
CHALLENGE ONE           
1 47956U 21022AA  21131.23239983  .00000244  00000-0  21191-4 0  9993
2 47956  97.5628  34.1212 0024348  79.9199 280.4773 15.05458038  7241
GRBALPHA                
1 47959U 21022AD  21131.49215531 -.00000132  00000-0 -48101-5 0  9996
2 47959  97.5624  34.3907 0023848  77.1842 283.2021 15.05636300  6316
ORBICRAFT-ZORKY         
1 47960U 21022AE  21130.55964538 -.00000061  00000-0  66388-7 0  9991
2 47960  97.5636  33.4891 0023540  80.0944 280.2939 15.05701001  6864
3B5GSAT (SATELIOT 1)    
1 47961U 21022AF  21131.48900669  .00000415  00000-0  32758-4 0  9993
2 47961  97.5621  34.3974 0023583  76.5718 283.8140 15.05761629  6301
STECCO                  
1 47962U 21022AG  21131.45733221  .00001312  00000-0  92130-4 0  9996
2 47962  97.5610  34.4243 0018637  75.8089 284.5187 15.06717994  6303
DIY-1 (ARDUIQUBE)       
1 47963U 21022AH  21130.98332889  .00001638  00000-0  11280-3 0  9996
2 47963  97.5615  33.9800 0021639  73.5575 286.8029 15.07066924  6258
